Hospital Name,Address,City,State,Zip Code
Baptist Memorial Hospital - Memphis,6019 Walnut Grove Rd,Memphis,TN,38120
Baxter Regional Medical Center,624 Hospital Dr,Mountain Home,AR,72653
VAMC Tucson,3601 S 6th Ave,Tucson,AZ,85723
Saint Luke's Hospital - Bethlehem Campus,801 Ostrum St,Bethlehem,PA,18015
Texas Children's Hospital,6621 Fannin St,Houston,TX,77030
Aultman Hospital,2600 6th St SW,Canton,OH,44710
Mercy Health - St. Elizabeth Youngstown,1044 Belmont Ave,Youngstown,OH,44501
Mercy St. Ritas Medical Center,730 W Market St,Lima,OH,45801
Owensboro Health Regional Hospital,1201 Pleasant Valley Rd,Owensboro,KY,42303
Ballad Health,1 Medical Park Blvd,Bristol,TN,37620
Sentara RMH Regional Medical Center,2010 Health Campus Dr,Harrisonburg,VA,22801
Carolinas Medical Center,1000 Blythe Blvd,Charlotte,NC,28203
UPMC Shadyside Hospital,5230 Centre Ave,Pittsburgh,PA,15232
Northeast Georgia Medical Center,743 Spring St NE,Gainesville,GA,30501
Memorial Hospital at Gulfport,4500 13th St,Gulfport,MS,39501
Spartanburg Medical Center,101 E Wood St,Spartanburg,SC,29303
Regional Medical Center Anniston,400 E 10th St,Anniston,AL,36207
Memorial Sloan Kettering,1275 York Ave,New York,NY,10065
Terrebonne General Health System,8166 W Main St,Houma,LA,70360
St Clair Memorial Hospital,1000 Bower Hill Rd,Pittsburgh,PA,15243
St. Lukes Duluth,915 E 1st St,Duluth,MN,55805
Cape Regional Medical Center,2 Stone Harbor Blvd,Cape May Court House,NJ,08210
AnMed Health,800 N Fant St,Anderson,SC,29621
Baptist CPS,9601 Baptist Health Dr,Little Rock,AR,72205
UPMC Hamot Medical Center,201 State St,Erie,PA,16550
TriHealth Good Samaritan Hospital,375 Dixmyth Ave,Cincinnati,OH,45220
TriHealth Bethesda North Hospital,10500 Montgomery Rd,Cincinnati,OH,45242
TriHealth Bethesda Butler Hospital,3125 Hamilton-Mason Rd,Hamilton,OH,45011
Blessing Hospital,Broadway at 11th Street,Quincy,IL,62301
Mercy Hospital St. Louis,615 S New Ballas Rd,St. Louis,MO,63141
The Christ Hospital Health Network,2139 Auburn Ave,Cincinnati,OH,45219
Bristol Regional Medical Center,1 Medical Park Blvd,Bristol,TN,37620
Mercyhealth Hospital and Trauma Center,1000 Mineral Point Ave,Janesville,WI,53548
Summa Health System - Akron Campus,525 E Market St,Akron,OH,44304
University of Iowa Hospitals & Clinics,200 Hawkins Dr,Iowa City,IA,52242
Dartmouth-Hitchcock Medical Center,1 Medical Center Dr,Lebanon,NH,03756
